NORAD_CAT_ID,OBJECT_NAME,OBJECT_TYPE,EPOCH,MEAN_MOTION,ECCENTRICITY,INCLINATION,RA_OF_ASC_NODE,ARG_OF_PERICENTER,MEAN_ANOMALY,BSTAR,MEAN_MOTION_DOT,MEAN_MOTION_DDOT,TLE_LINE0,TLE_LINE1,TLE_LINE2,SEMIMAJOR_AXIS,PERIOD,APOGEE,PERIGEE,DECAYED
49425.0,STARLINK-3139,PAYLOAD,2024-06-29 03:01:51,15.08846243,0.0001563,53.2164,125.9706,110.6539,249.4621,0.00011427,1.531e-05,0.0,0 STARLINK-3139,1 49425U 21104T   24181.12628863  .00001531  00000-0  11427-3 0  9992,2 49425  53.2164 125.9706 0001563 110.6539 249.4621 15.08846243145253,6917.861,95.437,540.808,538.645,0.0
49425.0,STARLINK-3139,PAYLOAD,2024-06-29 20:31:06,15.08837308,0.0001536,53.2163,122.7009,88.7541,271.3627,-1.3791e-05,-5.07e-06,0.0,0 STARLINK-3139,1 49425U 21104T   24181.85494096 -.00000507  00000-0 -13791-4 0  9992,2 49425  53.2163 122.7009 0001536  88.7541 271.3627 15.08837308146445,6917.889,95.438,540.816,538.691,0.0
49425.0,STARLINK-3139,PAYLOAD,2024-06-30 12:24:58,15.08840255,0.0001362,53.2166,119.7273,93.2542,266.8606,1.0966e-05,-1.13e-06,0.0,0 STARLINK-3139,1 49425U 21104T   24182.51733852 -.00000113  00000-0  10966-4 0  9995,2 49425  53.2166 119.7273 0001362  93.2542 266.8606 15.08840255145468,6917.88,95.438,540.687,538.802,0.0
49425.0,STARLINK-3139,PAYLOAD,2024-06-30 20:21:53,15.08836425,0.0001351,53.2171,118.2403,100.1263,259.9882,3.2124e-05,2.23e-06,0.0,0 STARLINK-3139,1 49425U 21104T   24182.84854095  .00000223  00000-0  32124-4 0  9995,2 49425  53.2171 118.2403 0001351 100.1263 259.9882 15.08836425145518,6917.891,95.438,540.691,538.822,0.0
49425.0,STARLINK-3139,PAYLOAD,2024-07-01 02:43:25,15.08842642,0.0001293,53.2168,117.0556,92.5803,267.5337,0.00013132,1.803e-05,0.0,0 STARLINK-3139,1 49425U 21104T   24183.11349499  .00001803  00000-0  13132-3 0  9995,2 49425  53.2168 117.0556 0001293  92.5803 267.5337 15.08842642146631,6917.872,95.437,540.632,538.843,0.0
49425.0,STARLINK-3139,PAYLOAD,2024-07-01 12:15:44,15.08844405,0.0001118,53.2147,115.2634,90.1472,269.9649,1.6066e-05,-3.2e-07,0.0,0 STARLINK-3139,1 49425U 21104T   24183.51093414 -.00000032  00000-0  16066-4 0  9996,2 49425  53.2147 115.2634 0001118  90.1472 269.9649 15.08844405145615,6917.867,95.437,540.505,538.959,0.0
49425.0,STARLINK-3139,PAYLOAD,2024-07-02 02:34:13,15.08834926,0.0001249,53.2166,112.5914,99.6721,260.4412,9.6341e-05,1.246e-05,0.0,0 STARLINK-3139,1 49425U 21104T   24184.10710248  .00001246  00000-0  96341-4 0  9994,2 49425  53.2166 112.5914 0001249  99.6721 260.4412 15.08834926146783,6917.896,95.438,540.625,538.897,0.0
49425.0,STARLINK-3139,PAYLOAD,2024-07-02 12:06:32,15.08841305,0.0001259,53.217,110.8074,94.7301,265.3835,8.6932e-05,1.096e-05,0.0,0 STARLINK-3139,1 49425U 21104T   24184.50453939  .00001096  00000-0  86932-4 0  9997,2 49425  53.2170 110.8074 0001259  94.7301 265.3835 15.08841305145766,6917.876,95.437,540.612,538.87,0.0
49425.0,STARLINK-3139,PAYLOAD,2024-07-03 04:00:23,15.08848297,0.0001154,53.2165,107.8322,91.5888,268.5237,4.3323e-05,4.02e-06,0.0,0 STARLINK-3139,1 49425U 21104T   24185.16693719  .00000402  00000-0  43323-4 0  9999,2 49425  53.2165 107.8322 0001154  91.5888 268.5237 15.08848297146940,6917.855,95.437,540.518,538.922,0.0
49425.0,STARLINK-3139,PAYLOAD,2024-07-03 11:57:19,15.08840854,0.0001439,53.2181,106.346,86.7378,273.3779,-5.9218e-05,-1.23e-05,0.0,0 STARLINK-3139,1 49425U 21104T   24185.49814522 -.00001230  00000-0 -59218-4 0  9994,2 49425  53.2181 106.3460 0001439  86.7378 273.3779 15.08840854146992,6917.878,95.438,540.738,538.747,0.0
49425.0,STARLINK-3139,PAYLOAD,2024-07-04 03:51:10,15.08849371,0.0001248,53.2163,103.3729,92.0038,268.1097,9.3456e-05,1.2e-05,0.0,0 STARLINK-3139,1 49425U 21104T   24186.16053575  .00001200  00000-0  93456-4 0  9999,2 49425  53.2163 103.3729 0001248  92.0038 268.1097 15.08849371147098,6917.852,95.437,540.58,538.853,0.0
49425.0,STARLINK-3139,PAYLOAD,2024-07-04 11:48:06,15.08837827,0.0001306,53.2158,101.8846,89.2768,270.8374,-6.1405e-06,-3.86e-06,0.0,0 STARLINK-3139,1 49425U 21104T   24186.49174553 -.00000386  00000-0 -61405-5 0  9991,2 49425  53.2158 101.8846 0001306  89.2768 270.8374 15.08837827147145,6917.887,95.438,540.656,538.849,0.0
49425.0,STARLINK-3139,PAYLOAD,2024-07-04 22:55:48,15.08836923,0.0001426,53.2158,99.8045,86.5714,273.5441,9.1311e-05,1.165e-05,0.0,0 STARLINK-3139,1 49425U 21104T   24186.95542486  .00001165  00000-0  91311-4 0  9998,2 49425  53.2158  99.8045 0001426  86.5714 273.5441 15.08836923146135,6917.89,95.438,540.741,538.768,0.0
49425.0,STARLINK-3139,PAYLOAD,2024-07-05 03:41:57,15.088495,0.0001214,53.2163,98.909,98.2627,261.8503,5.4724e-05,5.83e-06,0.0,0 STARLINK-3139,1 49425U 21104T   24187.15413687  .00000583  00000-0  54724-4 0  9991,2 49425  53.2163  98.9090 0001214  98.2627 261.8503 15.08849500147246,6917.851,95.437,540.556,538.877,0.0
49425.0,STARLINK-3139,PAYLOAD,2024-07-05 11:38:53,15.08846059,0.0001294,53.2168,97.4254,93.8458,266.2683,2.1938e-05,6.1e-07,0.0,0 STARLINK-3139,1 49425U 21104T   24187.48533986  .00000061  00000-0  21938-4 0  9994,2 49425  53.2168  97.4254 0001294  93.8458 266.2683 15.08846059146218,6917.862,95.437,540.622,538.832,0.0
49425.0,STARLINK-3139,PAYLOAD,2024-07-05 21:11:12,15.08840364,0.0001485,53.2176,95.6378,100.8642,259.2518,4.3324e-05,4.02e-06,0.0,0 STARLINK-3139,1 49425U 21104T   24187.88278293  .00000402  00000-0  43324-4 0  9997,2 49425  53.2176  95.6378 0001485 100.8642 259.2518 15.08840364147358,6917.879,95.438,540.772,538.717,0.0
49425.0,STARLINK-3139,PAYLOAD,2024-07-06 00:21:58,15.08845267,0.000163,53.2182,95.0417,114.0962,246.02,1.911e-05,1.6e-07,0.0,0 STARLINK-3139,1 49425U 21104T   24188.01526003  .00000016  00000-0  19110-4 0  9995,2 49425  53.2182  95.0417 0001630 114.0962 246.0200 15.08845267146298,6917.864,95.437,540.857,538.602,0.0
49425.0,STARLINK-3139,PAYLOAD,2024-07-06 22:37:22,15.08838578,0.0001374,53.2174,90.8818,103.5814,256.5331,3.1273e-05,2.1e-06,0.0,0 STARLINK-3139,1 49425U 21104T   24188.94262397  .00000210  00000-0  31273-4 0  9990,2 49425  53.2174  90.8818 0001374 103.5814 256.5331 15.08838578146435,6917.885,95.438,540.7,538.799,0.0
49425.0,STARLINK-3139,PAYLOAD,2024-07-07 03:23:31,15.08842736,0.0001317,53.2174,89.9902,103.5134,256.6005,3.318e-06,-2.35e-06,0.0,0 STARLINK-3139,1 49425U 21104T   24189.14134230 -.00000235  00000-0  33180-5 0  9995,2 49425  53.2174  89.9902 0001317 103.5134 256.6005 15.08842736147543,6917.872,95.437,540.648,538.826,0.0
49425.0,STARLINK-3139,PAYLOAD,2024-07-08 09:35:51,15.08843463,0.0001399,53.2177,84.3395,102.8271,257.2877,-6.2549e-06,-3.87e-06,0.0,0 STARLINK-3139,1 49425U 21104T   24190.39990263 -.00000387  00000-0 -62549-5 0  9990,2 49425  53.2177  84.3395 0001399 102.8271 257.2877 15.08843463147738,6917.87,95.437,540.703,538.767,0.0
49425.0,STARLINK-3139,PAYLOAD,2024-07-08 20:43:34,15.08835699,0.0001451,53.2183,82.2582,93.1713,266.9445,1.1117e-05,-1.11e-06,0.0,0 STARLINK-3139,1 49425U 21104T   24190.86358934 -.00000111  00000-0  11117-4 0  9993,2 49425  53.2183  82.2582 0001451  93.1713 266.9445 15.08835699147800,6917.894,95.438,540.762,538.755,0.0
49425.0,STARLINK-3139,PAYLOAD,2024-07-08 22:18:57,15.08837787,0.000143,53.2183,81.9609,96.8016,263.3138,2.2274e-05,6.7e-07,0.0,0 STARLINK-3139,1 49425U 21104T   24190.92982759  .00000067  00000-0  22274-4 0  9993,2 49425  53.2183  81.9609 0001430  96.8016 263.3138 15.08837787146730,6917.887,95.438,540.741,538.763,0.0
49425.0,STARLINK-3139,PAYLOAD,2024-07-09 09:26:38,15.08845949,0.0001291,53.2178,79.8837,98.4067,261.7071,5.3825e-05,5.69e-06,0.0,0 STARLINK-3139,1 49425U 21104T   24191.39350053  .00000569  00000-0  53825-4 0  9994,2 49425  53.2178  79.8837 0001291  98.4067 261.7071 15.08845949147886,6917.862,95.437,540.62,538.834,0.0
49425.0,STARLINK-3139,PAYLOAD,2024-07-09 20:34:21,15.08835132,0.0001658,53.2181,77.7993,88.5929,271.5253,-3.6868e-05,-8.75e-06,0.0,0 STARLINK-3139,1 49425U 21104T   24191.85719304 -.00000875  00000-0 -36868-4 0  9993,2 49425  53.2181  77.7993 0001658  88.5929 271.5253 15.08835132147956,6917.895,95.438,540.907,538.613,0.0
49425.0,STARLINK-3139,PAYLOAD,2024-07-09 22:09:44,15.08833409,0.0001559,53.2188,77.504,95.2832,264.8339,-2.7506e-05,-7.26e-06,0.0,0 STARLINK-3139,1 49425U 21104T   24191.92343363 -.00000726  00000-0 -27506-4 0  9993,2 49425  53.2188  77.5040 0001559  95.2832 264.8339 15.08833409146888,6917.901,95.438,540.844,538.687,0.0
49425.0,STARLINK-3139,PAYLOAD,2024-07-10 09:17:26,15.0883636,0.000164,53.219,75.4217,87.4246,272.6934,-6.5892e-05,-1.336e-05,0.0,0 STARLINK-3139,1 49425U 21104T   24192.38711442 -.00001336  00000-0 -65892-4 0  9999,2 49425  53.2190  75.4217 0001640  87.4246 272.6934 15.08836360146952,6917.892,95.438,540.891,538.622,0.0
49425.0,STARLINK-3139,PAYLOAD,2024-07-10 22:00:31,15.08843687,0.0001542,53.2186,73.043,91.1908,268.9261,-4.0697e-05,-9.36e-06,0.0,0 STARLINK-3139,1 49425U 21104T   24192.91703112 -.00000936  00000-0 -40697-4 0  9994,2 49425  53.2186  73.0430 0001542  91.1908 268.9261 15.08843687147037,6917.869,95.437,540.801,538.667,0.0
49425.0,STARLINK-3139,PAYLOAD,2024-07-10 23:35:54,15.08845777,0.0001421,53.2178,72.7434,84.9563,275.1591,-4.3073e-05,-9.74e-06,0.0,0 STARLINK-3139,1 49425U 21104T   24192.98326965 -.00000974  00000-0 -43073-4 0  9991,2 49425  53.2178  72.7434 0001421  84.9563 275.1591 15.08845777148120,6917.863,95.437,540.711,538.745,0.0
49425.0,STARLINK-3139,PAYLOAD,2024-07-11 21:51:18,15.08834837,0.0001448,53.2176,68.5836,91.167,268.9488,0.00010648,1.407e-05,0.0,0 STARLINK-3139,1 49425U 21104T   24193.91063264  .00001407  00000-0  10648-3 0  9996,2 49425  53.2176  68.5836 0001448  91.1670 268.9488 15.08834837148260,6917.896,95.438,540.763,538.759,0.0
49425.0,STARLINK-3139,PAYLOAD,2024-07-12 01:02:04,15.08844694,0.0001405,53.2168,67.9861,90.8848,269.2305,0.00012091,1.637e-05,0.0,0 STARLINK-3139,1 49425U 21104T   24194.04310601  .00001637  00000-0  12091-3 0  9990,2 49425  53.2168  67.9861 0001405  90.8848 269.2305 15.08844694148284,6917.866,95.437,540.703,538.759,0.0
